#dP2020 11 13  0  0  0.00000000      96 __u+U ITR00 FIT  IAC
## 2131 432000.00000000   900.00000000 59166 0.0000000000000
+  116   C01C02C04C05C06C07C08C09C10C11C12C13C14C16C19C20C21
+        C22C23C24C25C26C27C28C29C30C32C33C34C35C36C37C39C40
+        C60E01E02E03E04E05E07E08E09E11E12E13E14E15E18E19E21
+        E24E25E26E27E30E31E33E36G01G02G03G04G05G06G07G08G09
+        G10G11G12G13G15G16G17G18G19G20G21G22G23G24G25G26G27
+        G28G29G30G31G32J01J02J03J07R01R02R03R04R05R07R08R09
+        R11R12R13R14R15R16R17R18R19R20R21R22R23R24  0  0  0
++        13 13 13 13  8  8  8  8  8  8  8  8  8  8  8  8  8
++         8  8  7  8  7  8  8  8  8  8  8  8  8  8  8 11 10
++        14  6  5  5  5  5  5  5  5  5  5  5  5  5  5  5  5
++         5  5  5  5  5  5  5  5  4  4  4  4  4  4  4  4  4
++         4  4  4  4  4  3  4  3  4  4  4  4  4  4  4  3  4
++         4  4  0  4  4  9  8  8 14  6  6  6  6  6  6  5  6
++         6  5  6  6  6  6  6  6  7  6  5  6  5  5  0  0  0
%c M  cc GPS ccc cccc cccc cccc cccc ccccc ccccc ccccc ccccc
%c cc cc ccc ccc cccc cccc cccc cccc ccccc ccccc ccccc ccccc
%f  0.0000000  0.000000000  0.00000000000  0.000000000000000
%f  0.0000000  0.000000000  0.00000000000  0.000000000000000
%i    0    0    0    0      0      0      0      0         0
%i    0    0    0    0      0      0      0      0         0
/* INFORMATION & ANALYSIS CENTER (IAC)            RAPID DATA
/* S/V CLOCKS ARE ALIGNED TO GNSS TIME                      
/* G:C1WC2W R:C1PC2P E:C1XC5X C:C2IC6I J:C1CC2S             
/* PCV:IGS14_2131 OL/AL:FES2004  NONE     YN ORB:CoN CLK:CoN
*  2020 11 13  7 45  0.00000000
PC01 -34399.068245  24392.783442     94.946043   -731.258436
PC02   4460.275912  41925.028559    208.662141    743.527524
PC04 -39652.815541  14349.355551   -537.730642     18.892045
PC05  21835.631119  36057.183199    491.491941   -327.005770
PC06 -16694.404712  20721.917203  33030.986382    138.642242
PC07 -22697.326830  35546.393840  -4495.905017    -34.830484
PC08  -5531.505109  32005.411943 -26574.550809   -693.390691
PC09   1168.008895  25410.942361  33932.487838    934.032337
PC10 -10720.260567  37083.283777 -17233.849491   -143.130482
PC11  13639.446033  -9953.600874  22271.901622   -748.694825
PC12  25538.675038   3167.416153  10790.755011    607.131698
PC13   3907.594444  38951.223774 -15176.055963    741.419266
PC14  19926.563327 -19061.866638  -4079.043796    237.263816
PC16 -13922.254674  21180.099033  33743.209694   -609.532568
PC19 -12890.623765  21233.774474  12743.323402    616.554564
PC20 -23402.656696  14700.066179  -3961.778254   -888.845809
PC21  20370.240566    976.129735  19047.456346   -721.554822
PC22   5334.254795  15636.777973  22485.215535   -790.802526
PC23  -8340.459958 -25649.291420   7186.332601   -915.124499
PC24  14317.459337 -10175.406796 -21692.178534   -721.638489
PC25   3240.922124 -25895.004023  -9918.668934   -825.232504
PC26  16219.182747   9616.685864 -20563.403896    902.903635
PC27 -25989.202387 -10006.197699  -1693.647447    431.995001
PC28 -15189.714410 -17929.029807  15067.322273   -146.537922
PC29  -3889.622444  15480.210737 -22893.421984    310.585138
PC30 -21647.395102   4245.484665 -17081.993994    403.157753
PC32 -20380.133189   -838.760026 -19042.068761   -888.824407
PC33  12840.624108 -21297.983722 -12650.346643   -835.573134
PC34  21291.870529  -4638.684862  17439.232694   -810.004209
PC35  15572.941141  17478.510574 -15210.135825   -562.142760
PC36  -4058.924657  25662.844947  10206.035013   -839.106511
PC37 -15879.575980 -10862.264226  20243.321810   -877.518635
PC39  -8074.283130  23089.784043  34327.653447     25.096655
PC40 -18984.469506  34322.854474 -15641.228652    100.525920
PC60   7291.468160  41477.225245  -1996.938899     -0.552280
PE01 -16781.898078  -1326.501551  24354.656332   -981.708124
PE02  16814.546530   1171.932300 -24327.137812    176.063063
PE03  28281.431067    604.749972   8683.147530   -364.491397
PE04 -25307.174157  12004.460467   9571.250220   -646.846681
PE05  14715.081946  13047.578086  22115.151748   -329.828007
PE07   7312.013177 -17762.717839 -22520.987148   -461.257098
PE08  25070.492427 -12244.616937  -9873.417541   6092.400468
PE09  -7118.421997  17673.729895  22652.162119   5866.849045
PE11   2625.913220  22107.904979 -19512.099827   6837.559667
PE12 -14766.660600   7595.365582 -24498.712716   5508.622542
PE13  -2450.334100 -21914.978010  19756.657979    406.326558
PE14 -18545.009323  15796.835203 -21261.115362  -1223.820472
PE15  14598.630990  -7716.890188  24575.471850    843.988787
PE18  16891.269844  -9463.036102  13707.237029  -1336.930464
PE19 -27502.592176  -2140.461636 -10734.678604    127.187558
PE21  -7147.928108 -20675.578297  19948.498368   -631.701433
PE24  -7388.390350  28457.277826  -3317.367336   -580.607287
PE25   7030.001765  20796.692073 -19839.611926   -520.141877
PE26 -18249.873978 -23155.750849   2724.766133   2501.634912
PE27   6912.785615 -28534.925215   3819.486305     93.758242
PE30  17135.649316 -18964.905631 -14943.877138   3427.850900
PE31 -16844.857266  19564.942341  14489.899563   -475.659699
PE33 -23056.010683 -11028.675150 -14926.980248   -463.344160
PE36  18047.443237  23219.744508  -3323.923871    481.616320
PG01  17615.089353   7054.676269  18486.330101    807.965342
PG02 -14533.699572 -22197.644674   -664.190614   -541.914002
PG03  18262.518780  -5306.721958  18417.328492     -2.573794
PG04  26534.986915    757.104104  -1413.826691   -154.853269
PG05  -8274.837087 -14824.287796 -20537.327830    -25.769538
PG06  -3615.383743 -23516.628884  11822.740027     -0.802900
PG07  11608.831429 -10292.578813 -21182.181817   -413.321201
PG08  24670.811760   6057.537355  -8211.383885    -54.940512
PG09  21962.481212  -8450.540661 -12395.708077   -288.914718
PG10 -10869.621728  23650.893664   4616.494602   -503.448141
PG11  23374.882142  10113.006123   6390.163062   -110.046267
PG12 -17531.567925   1588.090956  19603.976012     41.014610
PG13 -18033.418120 -13148.924176 -14621.475487     64.401773
PG15 -25453.190979  -3780.061341  -7664.064831   -190.350980
PG16   7054.449504  14501.588354 -21233.184229   -235.782313
PG17   5302.789780 -14328.964356  22154.117725    353.228448
PG18 -10269.126944  12209.528807 -21234.636753    320.689126
PG19  -2146.440672 -14882.048926  21617.412989    -78.971197
PG20 -15380.111155  19922.609568  -8131.805725    526.040293
PG21  19309.224699  14496.665397  12221.635751     67.723637
PG22  15954.110549   3224.620187  21166.207731   -730.642199
PG23 -16415.328579  20070.349702  -5722.266002     99.637139
PG24 -19373.190996  -9702.791037  15391.267833      6.500179
PG25 -18632.118490  14269.966305  11931.635883     21.317964
PG26  -1510.274997  22628.845397 -13655.106716    310.955970
PG27  16075.960674  12335.970329 -17498.843393    -12.522814
PG28  11580.021968 -23119.569765   7024.413705    656.105831
PG29 -23733.495073   4851.365993 -10984.724016   -235.455499
PG30      0.000000      0.000000      0.000000 999999.999999
PG31   4657.744648  24108.636734   9441.737842    -81.130891
PG32  -4737.207469  15010.395407  21461.136053      0.009940
PJ01 -30832.797444  28419.631598   9732.893714   -336.531033
PJ02 -28407.990533  27440.371051  19772.193676     -0.073850
PJ03 -28680.038401  16101.244932 -21752.478808     -3.031312
PJ07 -25356.559179  33686.190553     37.632326      0.014433
PR01 -22262.077847  12424.374589   1001.552645     70.526638
PR02  -8042.890869  14357.371448  19497.684178    454.177187
PR03   9671.058999   7136.132394  22538.481295     25.484904
PR04  21619.383297  -4169.783513  12904.556500     61.383895
PR05  21589.947668 -13003.636129  -4015.316789     61.017544
PR07 -10141.607752  -6803.978830 -22360.073482    -41.306877
PR08 -21639.360292   4140.792960 -12791.545914    -55.666665
PR09   1730.176184 -25381.048091  -1277.956172      7.478306
PR11 -11116.324363  -1115.397865  22949.322379    -44.517815
PR12  -9050.997363  16394.639136  17338.067162    179.756353
PR13  -1772.621841  25392.327492   1641.954906    -46.576750
PR14   6431.253978  19337.799469 -15332.858766     57.664534
PR15  10840.258437   2201.149816 -22960.247901    106.751442
PR16   8572.074722 -17380.618137 -16676.872722     -8.169087
PR17  17962.879256  16179.448642  -8051.860854    373.600285
PR18  21868.689199   9680.436601   8952.441986     56.020174
PR19  14547.606078  -1184.524872  20919.464574   -119.491041
PR20  -3028.825457 -13682.670505  21316.061835   -426.460466
PR21 -18554.755075 -16061.096622   7030.400387   -165.804107
PR22 -21573.057917  -9039.951647 -10082.444207    -81.621179
PR23  -8439.452806   6776.462774 -23102.623553    344.553278
PR24   3645.678712  14300.877536 -20778.493400     20.357796
EOF
